{"type": "FeatureCollection", "features": [ {"type": "Feature", "properties": {"norad_id": 37216, "name": "COSMO-SKYMED 4", "group": "resource", "lat": 57.525000534793, "lon": 158.33313071470957, "alt_km": 616.1257202942516, "timestamp": "2025-12-15T14:57:57.496966+00:00", "meta": {"OBJECT_NAME": "COSMO-SKYMED 4", "OBJECT_ID": "2010-060A", "EPOCH": "2025-12-14T22:30:03.227904", "MEAN_MOTION": 14.82149135, "ECCENTRICITY": 0.00013792, "INCLINATION": 97.8807, "RA_OF_ASC_NODE": 170.2275, "ARG_OF_PERICENTER": 82.4751, "MEAN_ANOMALY": 277.6619, "EPHEMERIS_TYPE": 0, "CLASSIFICATION_TYPE": "U", "NORAD_CAT_ID": 37216, "ELEMENT_SET_NO": 999, "REV_AT_EPOCH": 81727, "BSTAR": 0.00013294921, "MEAN_MOTION_DOT": 1.006e-05, "MEAN_MOTION_DDOT": 0}, "tle": {"line1": "1 37216U 10060A   25348.93753736  .00001006  00000+0  13295-3 0  9990", "line2": "2 37216  97.8807 170.2275 0001379  82.4751 277.6619 14.82149135817272"}}, "geometry": {"type": "Point", "coordinates": [158.33313071470957, 57.525000534793]}}, {"type": "Feature", "properties": {"norad_id": 37387, "name": "RESOURCESAT-2", "group": "resource", "lat": 62.71766053823593, "lon": -109.38458806714422, "alt_km": 813.0907524013546, "timestamp": "2025-12-15T14:57:57.496982+00:00", "meta": {"OBJECT_NAME": "RESOURCESAT-2", "OBJECT_ID": "2011-015A", "EPOCH": "2025-12-14T21:31:53.039424", "MEAN_MOTION": 14.21598081, "ECCENTRICITY": 0.0006337, "INCLINATION": 98.7876, "RA_OF_ASC_NODE": 52.4393, "ARG_OF_PERICENTER": 36.9441, "MEAN_ANOMALY": 323.2172, "EPHEMERIS_TYPE": 0, "CLASSIFICATION_TYPE": "U", "NORAD_CAT_ID": 37387, "ELEMENT_SET_NO": 999, "REV_AT_EPOCH": 75999, "BSTAR": 9.3451195e-05, "MEAN_MOTION_DOT": 1.6e-06, "MEAN_MOTION_DDOT": 0}, "tle": {"line1": "1 37387U 11015A   25348.89714166  .00000160  00000+0  93451-4 0  9992", "line2": "2 37387  98.7876  52.4393 0006337  36.9441 323.2172 14.21598081759995"}}, "geometry": {"type": "Point", "coordinates": [-109.38458806714422, 62.71766053823593]}}, {"type": "Feature", "properties": {"norad_id": 37781, "name": "HAIYANG-2A", "group": "resource", "lat": 76.63777447710534, "lon": -53.330922240274624, "alt_km": 959.532467815844, "timestamp": "2025-12-15T14:57:57.496995+00:00", "meta": {"OBJECT_NAME": "HAIYANG-2A", "OBJECT_ID": "2011-043A", "EPOCH": "2025-12-14T22:54:13.863168", "MEAN_MOTION": 13.78835593, "ECCENTRICITY": 0.00016507, "INCLINATION": 99.3383, "RA_OF_ASC_NODE": 349.8549, "ARG_OF_PERICENTER": 80.9689, "MEAN_ANOMALY": 279.1649, "EPHEMERIS_TYPE": 0, "CLASSIFICATION_TYPE": "U", "NORAD_CAT_ID": 37781, "ELEMENT_SET_NO": 999, "REV_AT_EPOCH": 72129, "BSTAR": 0.00016465812, "MEAN_MOTION_DOT": 1.24e-06, "MEAN_MOTION_DDOT": 0}, "tle": {"line1": "1 37781U 11043A   25348.95432712  .00000124  00000+0  16466-3 0  9992", "line2": "2 37781  99.3383 349.8549 0001650  80.9689 279.1649 13.78835593721298"}}, "geometry": {"type": "Point", "coordinates": [-53.330922240274624, 76.63777447710534]}}, {"type": "Feature", "properties": {"norad_id": 37791, "name": "RASAT", "group": "resource", "lat": 39.714476757355925, "lon": 72.074403139769, "alt_km": 649.9024966308643, "timestamp": "2025-12-15T14:57:57.497005+00:00", "meta": {"OBJECT_NAME": "RASAT", "OBJECT_ID": "2011-044D", "EPOCH": "2025-12-14T22:55:42.759264", "MEAN_MOTION": 14.67913772, "ECCENTRICITY": 0.00218069, "INCLINATION": 98.0646, "RA_OF_ASC_NODE": 78.1798, "ARG_OF_PERICENTER": 58.3718, "MEAN_ANOMALY": 52.8575, "EPHEMERIS_TYPE": 0, "CLASSIFICATION_TYPE": "U", "NORAD_CAT_ID": 37791, "ELEMENT_SET_NO": 999, "REV_AT_EPOCH": 76615, "BSTAR": 0.00013270661, "MEAN_MOTION_DOT": 7.13e-06, "MEAN_MOTION_DDOT": 0}, "tle": {"line1": "1 37791U 11044D   25348.95535601  .00000713  00000+0  13271-3 0  9990", "line2": "2 37791  98.0646  78.1798 0021806  58.3718  52.8575 14.67913772766155"}}, "geometry": {"type": "Point", "coordinates": [72.074403139769, 39.714476757355925]}}, {"type": "Feature", "properties": {"norad_id": 37841, "name": "SRMSAT", "group": "resource", "lat": 0.0823235100210035, "lon": 90.72783671594497, "alt_km": 843.6221226702783, "timestamp": "2025-12-15T14:57:57.497015+00:00", "meta": {"OBJECT_NAME": "SRMSAT", "OBJECT_ID": "2011-058D", "EPOCH": "2025-12-14T15:48:49.457664", "MEAN_MOTION": 14.11512147, "ECCENTRICITY": 0.00118046, "INCLINATION": 19.9714, "RA_OF_ASC_NODE": 96.3351, "ARG_OF_PERICENTER": 334.6313, "MEAN_ANOMALY": 153.0609, "EPHEMERIS_TYPE": 0, "CLASSIFICATION_TYPE": "U", "NORAD_CAT_ID": 37841, "ELEMENT_SET_NO": 999, "REV_AT_EPOCH": 73171, "BSTAR": 0.00010517798, "MEAN_MOTION_DOT": 4.58e-06, "MEAN_MOTION_DDOT": 0}, "tle": {"line1": "1 37841U 11058D   25348.65890576  .00000458  00000+0  10518-3 0  9990", "line2": "2 37841  19.9714  96.3351 0011804 334.6313 153.0609 14.11512147731710"}}, "geometry": {"type": "Point", "coordinates": [90.72783671594497, 0.0823235100210035]}}, {"type": "Feature", "properties": {"norad_id": 38012, "name": "PLEIADES 1A", "group": "resource", "lat": 78.14166813211827, "lon": -74.40031390132212, "alt_km": 689.6836487109995, "timestamp": "2025-12-15T14:57:57.497025+00:00", "meta": {"OBJECT_NAME": "PLEIADES 1A", "OBJECT_ID": "2011-076F", "EPOCH": "2025-12-15T00:15:37.203264", "MEAN_MOTION": 14.58564623, "ECCENTRICITY": 0.00012837, "INCLINATION": 98.182, "RA_OF_ASC_NODE": 61.7442, "ARG_OF_PERICENTER": 73.9104, "MEAN_ANOMALY": 49.2126, "EPHEMERIS_TYPE": 0, "CLASSIFICATION_TYPE": "U", "NORAD_CAT_ID": 38012, "ELEMENT_SET_NO": 999, "REV_AT_EPOCH": 74514, "BSTAR": 0.00013682103, "MEAN_MOTION_DOT": 5.91e-06, "MEAN_MOTION_DDOT": 0}, "tle": {"line1": "1 38012U 11076F   25349.01084726  .00000591  00000+0  13682-3 0  9997", "line2": "2 38012  98.1820  61.7442 0001283  73.9104  49.2126 14.58564623745145"}}, "geometry": {"type": "Point", "coordinates": [-74.40031390132212, 78.14166813211827]}}, {"type": "Feature", "properties": {"norad_id": 38038, "name": "ZIYUAN 1-02C (ZY 1-02C)", "group": "resource", "lat": 26.165678678243992, "lon": -120.23615765521969, "alt_km": 759.3215056687268, "timestamp": "2025-12-15T14:57:57.497035+00:00", "meta": {"OBJECT_NAME": "ZIYUAN 1-02C (ZY 1-02C)", "OBJECT_ID": "2011-079A", "EPOCH": "2025-12-14T23:47:56.303232", "MEAN_MOTION": 14.38015597, "ECCENTRICITY": 0.00072816, "INCLINATION": 98.4331, "RA_OF_ASC_NODE": 54.9637, "ARG_OF_PERICENTER": 132.2976, "MEAN_ANOMALY": 351.4258, "EPHEMERIS_TYPE": 0, "CLASSIFICATION_TYPE": "U", "NORAD_CAT_ID": 38038, "ELEMENT_SET_NO": 999, "REV_AT_EPOCH": 73273, "BSTAR": 0.00023708652, "MEAN_MOTION_DOT": 6.74e-06, "MEAN_MOTION_DDOT": 0}, "tle": {"line1": "1 38038U 11079A   25348.99162388  .00000674  00000+0  23709-3 0  9998", "line2": "2 38038  98.4331  54.9637 0007281 132.2976 351.4258 14.38015597732737"}}, "geometry": {"type": "Point", "coordinates": [-120.23615765521969, 26.165678678243992]}}, {"type": "Feature", "properties": {"norad_id": 38046, "name": "ZIYUAN 3-1 (ZY 3-1)", "group": "resource", "lat": -44.12526122699547, "lon": -130.90939140433122, "alt_km": 368.9300435035402, "timestamp": "2025-12-15T14:57:57.497044+00:00", "meta": {"OBJECT_NAME": "ZIYUAN 3-1 (ZY 3-1)", "OBJECT_ID": "2012-001A", "EPOCH": "2025-12-14T22:42:18.224064", "MEAN_MOTION": 15.68934649, "ECCENTRICITY": 0.00016545, "INCLINATION": 97.1756, "RA_OF_ASC_NODE": 55.4157, "ARG_OF_PERICENTER": 338.2024, "MEAN_ANOMALY": 21.9168, "EPHEMERIS_TYPE": 0, "CLASSIFICATION_TYPE": "U", "NORAD_CAT_ID": 38046, "ELEMENT_SET_NO": 999, "REV_AT_EPOCH": 77531, "BSTAR": 0.0004598432, "MEAN_MOTION_DOT": 0.00052937, "MEAN_MOTION_DDOT": 0}, "tle": {"line1": "1 38046U 12001A   25348.94604426  .00052937  00000+0  45984-3 0  9990", "line2": "2 38046  97.1756  55.4157 0001654 338.2024  21.9168 15.68934649775318"}}, "geometry": {"type": "Point", "coordinates": [-130.90939140433122, -44.12526122699547]}}, {"type": "Feature", "properties": {"norad_id": 38338, "name": "ARIRANG-3 (KOMPSAT-3)", "group": "resource", "lat": 28.33121273357794, "lon": -60.29742726436018, "alt_km": 684.4910521346901, "timestamp": "2025-12-15T14:57:57.497054+00:00", "meta": {"OBJECT_NAME": "ARIRANG-3 (KOMPSAT-3)", "OBJECT_ID": "2012-025B", "EPOCH": "2025-12-14T22:24:23.721696", "MEAN_MOTION": 14.61715997, "ECCENTRICITY": 0.00052164, "INCLINATION": 98.3324, "RA_OF_ASC_NODE": 303.5395, "ARG_OF_PERICENTER": 331.4887, "MEAN_ANOMALY": 28.6028, "EPHEMERIS_TYPE": 0, "CLASSIFICATION_TYPE": "U", "NORAD_CAT_ID": 38338, "ELEMENT_SET_NO": 999, "REV_AT_EPOCH": 72442, "BSTAR": 0.00014978994, "MEAN_MOTION_DOT": 6.98e-06, "MEAN_MOTION_DDOT": 0}, "tle": {"line1": "1 38338U 12025B   25348.93360789  .00000698  00000+0  14979-3 0  9997", "line2": "2 38338  98.3324 303.5395 0005216 331.4887  28.6028 14.61715997724427"}}, "geometry": {"type": "Point", "coordinates": [-60.29742726436018, 28.33121273357794]}}, {"type": "Feature", "properties": {"norad_id": 38709, "name": "EXACTVIEW-1 (ADS-1B)", "group": "resource", "lat": 4.925756306876921, "lon": 97.29450296539315, "alt_km": 803.8834321366012, "timestamp": "2025-12-15T14:57:57.497063+00:00", "meta": {"OBJECT_NAME": "EXACTVIEW-1 (ADS-1B)", "OBJECT_ID": "2012-039C", "EPOCH": "2025-12-14T22:05:24.185184", "MEAN_MOTION": 14.24908874, "ECCENTRICITY": 0.00105543, "INCLINATION": 98.9637, "RA_OF_ASC_NODE": 97.3562, "ARG_OF_PERICENTER": 347.8643, "MEAN_ANOMALY": 12.2279, "EPHEMERIS_TYPE": 0, "CLASSIFICATION_TYPE": "U", "NORAD_CAT_ID": 38709, "ELEMENT_SET_NO": 999, "REV_AT_EPOCH": 69646, "BSTAR": 8.2695226e-05, "MEAN_MOTION_DOT": 1.47e-06, "MEAN_MOTION_DDOT": 0}, "tle": {"line1": "1 38709U 12039C   25348.92041881  .00000147  00000+0  82695-4 0  9992", "line2": "2 38709  98.9637  97.3562 0010554 347.8643  12.2279 14.24908874696464"}}, "geometry": {"type": "Point", "coordinates": [97.29450296539315, 4.925756306876921]}}]}